#cP2008  5 26  0  0  0.00000000      96 ORBIT IGS05 HLM  IGS
## 1481  86400.00000000   900.00000000 54612 0.0000000000000
+   31   G02G03G04G05G06G07G08G09G10G11G12G13G14G15G16G17G18
+        G19G20G21G22G23G24G25G26G27G28G29G30G31G32  0  0  0
+          0  0  0  0  0  0  0  0  0  0  0  0  0  0  0  0  0
+          0  0  0  0  0  0  0  0  0  0  0  0  0  0  0  0  0
+          0  0  0  0  0  0  0  0  0  0  0  0  0  0  0  0  0
++         2  3  2  2  2  3  3  3  2  3  3  3  3  3  3  3  3
++         3  2  2  2  3  2  3  2  3  3  2  2  2  2  0  0  0
++         0  0  0  0  0  0  0  0  0  0  0  0  0  0  0  0  0
++         0  0  0  0  0  0  0  0  0  0  0  0  0  0  0  0  0
++         0  0  0  0  0  0  0  0  0  0  0  0  0  0  0  0  0
%c G  cc GPS ccc cccc cccc cccc cccc ccccc ccccc ccccc ccccc
%c cc cc ccc ccc cccc cccc cccc cccc ccccc ccccc ccccc ccccc
%f  1.2500000  1.025000000  0.00000000000  0.000000000000000
%f  0.0000000  0.000000000  0.00000000000  0.000000000000000
%i    0    0    0    0      0      0      0      0         0
%i    0    0    0    0      0      0      0      0         0
/* FINAL ORBIT COMBINATION FROM WEIGHTED AVERAGE OF:        
/* cod emr esa gfz grg jpl mit ngs sio                      
/* REFERENCED TO IGS TIME (IGST) AND TO WEIGHTED MEAN POLE: 
/* PCV:IGS05_1480 OL/AL:FES2004  NONE     Y  ORB:CMB CLK:CMB
*  2008  5 26  6  0  0.00000000
PG02 -13158.731600 -19604.407641 -12667.897670    205.148782  6  9  6 117       
PG03  23166.614455  11284.688149  -7406.353163    233.331400  5  9  6 130       
PG04  -6595.841262 -25367.292570  -2936.494246    -75.860580  5 10  7 147       
PG05 -20932.141804  14779.375201   6424.235723    781.350694  5  7  7 109       
PG06  17482.634210  15276.528071 -12728.407168    135.646873  3  8  6  95       
PG07   9042.474688 -17878.367042 -17429.369238    -34.423418  3  9  7 136       
PG08   1578.188484 -25265.364384  -7263.464103 999999.999999
PG09 -14618.659605   1830.841665  21476.178664    126.163886  7  9  7           
PG10 -14951.786510  -6734.685969 -21092.449730     -1.764594  9  9  3 135       
PG11  15483.070791  -6021.140292  20568.508319     25.308278  5  3  6 116       
PG12 -22455.148831   9583.589734  10429.708389   -359.018461  8 10  8 112       
PG13  12964.574967  -9577.849038 -21224.369962    257.003527  7 10  7 148       
PG14   4930.566101  16354.590994  20464.909281   -262.637744  7 10  7  82       
PG15 -25592.368426  -6382.119324   3184.442638   -116.678666  4  4  7 101       
PG16  10423.610469  10935.773275 -21775.687637    123.760650  6  6  7 121       
PG17  -5161.623905 -16830.710026  19977.482006     38.895477  8  8  9 109       
PG18 -16523.906895  19422.987109   6896.710794   -174.196673  3  9  5 131       
PG19  25194.059485   7598.048249   4368.575821     30.673788  6 10  6 153       
PG20  22290.076481 -11511.934581   8538.370875    113.549594  4  6  5 117       
PG21  -6362.456774  21736.933768 -13176.007897     63.217458  6  6  1 126       
PG22  -4752.286888  19636.357823  17367.353935    211.256946  5 10  4 123       
PG23  22862.409962  -1739.675963 -13687.047549    355.819534  9  7  9 131       
PG24 -13411.717145   9929.515671 -20554.798289     96.781685  5  7  6 100       
PG25  11467.471417 -11734.013998 -20564.957351   -177.212303 11 10  9 125       
PG26 -24645.345015 -10674.762721   -916.611436    261.064884  5  8  6  94       
PG27   6192.361860 -19881.090294 -15734.895340    191.029589  8 11 11 122       
PG28   6302.885689 -19911.895575  16594.380578    -19.355767  4  9  6 140       
PG29 -16309.534003   8199.039213 -19161.933041    -42.946953  6  6  7 128       
PG30 -18922.511424  18545.114514  -1070.314597     78.193740  4  7  6 125       
PG31   7579.538950  25029.870786  -4087.179900    -21.176753  6  9  2 135       
PG32  18334.498136   3176.436101  19327.207745    289.922945  8  7  5 107       
*  2008  5 26  6 15  0.00000000
PG02 -13220.891259 -20907.302265 -10296.631684    205.150299  6  9  6  95       
PG03  22170.239179  11380.173246  -9930.961779    233.336014  5  9  6 123       
PG04  -6303.575501 -25597.643309   -102.549992    -75.868069  5 10  7 144       
PG05 -20531.738450  13893.047083   9059.291083    781.358293  5  7  6  85       
PG06  15860.410822  15101.048145 -14856.775487    135.654182  4  8  6  99       
PG07   9623.536951 -15875.214424 -18996.208822    -34.415519  4  9  7 124       
PG08   1941.059329 -24326.650278  -9959.043388 999999.999999
PG09 -15235.275918   -664.649193  21136.638364    126.165726  7  9  6  80       
PG10 -13152.680251  -8343.086210 -21682.596726     -1.765178  9  8  3 132       
PG11  16418.050431  -3806.142719  20403.130999     25.308232  5  4  6 115       
PG12 -21619.462910   8536.883911  12853.446989   -359.017948  7  9  7  83       
PG13  15133.084336  -8712.895580 -20125.243696    257.005167  7  9  7 144       
PG14   2679.444406  15619.317737  21430.819420   -262.633757  7 10  7  74       
PG15 -25706.483949  -6692.639657    345.326340   -116.683785  5  4  7  95       
PG16   8534.703047  12576.890300 -21694.290286    123.759446  6  5  7 114       
PG17  -2925.479998 -16173.743933  20937.089355     38.895408  7  8  9 117       
PG18 -17195.021434  19588.467790   4141.293019   -174.193532  2  8  4 133       
PG19  25407.197927   7950.225483   1557.632572     30.674460  7 11  5 149       
PG20  21644.546524 -10535.340107  11057.768949    113.548785  4  6  6 120       
PG21  -6958.460885  20135.708852 -15281.505675     63.216179  6  5  2 126       
PG22  -6304.528219  20684.446675  15539.869598    211.257231  5 10  4 104       
PG23  24154.592454  -1147.065351 -11335.787867    355.821683  9  7  9 116       
PG24 -13864.283460   7548.281035 -21225.300601     96.785065  5  7  7 113       
PG25  12274.065796  -9404.612806 -21256.524461   -177.236090 11 10  8 117       
PG26 -24407.673855 -10712.446584  -3787.004669    261.072120  6  8  6 100       
PG27   6908.406293 -17978.831271 -17556.620876    191.033256  9 11 12 141       
PG28   7733.755762 -20905.723667  14569.013177    -19.356202  4 10  7 140       
PG29 -18281.262344   7378.806975 -17664.172641    -42.946662  5  6  6 132       
PG30 -19077.993160  18279.120209   1766.768905     78.195129  4  7  6 119       
PG31   7413.721128  25402.260334  -1231.886501    -21.177839  6  9  1 130       
PG32  16649.497905   4594.653860  20570.340724    289.927302  8  7  5 100       
*  2008  5 26  6 30  0.00000000
PG02 -13271.634511 -21941.788205  -7752.746248    205.151607  6  9  6  98       
PG03  20911.438207  11482.504293 -12289.683359    233.339378  6  9  6 127       
PG04  -5938.058720 -25530.251840   2733.187854    -75.875739  4 10  8 146       
PG05 -19991.816892  12760.757498  11535.453802    781.365863  5  7  6  91       
PG06  14009.070679  14955.771257 -16726.655725    135.661678  4  8  6 106       
PG07  10351.360709 -13752.895732 -20236.202639    -34.407710  5  9  7 124       
PG08   2419.145010 -23118.954848 -12479.275996 999999.999999
PG09 -15961.341724  -3062.665094  20412.283899 999999.999999
PG10 -11406.831610 -10078.812847 -21905.351263     -1.765934  9  8  4 129       
PG11  17423.774361  -1668.750782  19882.825527     25.307922  4  5  6 119       
PG12 -20656.904377   7261.624668  15056.009699   -359.017920  5  8  7 107       
PG13  17211.109695  -8015.844027 -18683.103350    257.006910  7  9  6 145       
PG14    304.425078  14989.020152  22031.835222   -262.629985  7 10  7  85       
PG15 -25523.897844  -6921.187198  -2499.727348   -116.689135  6  6  7  98       
PG16   6755.072369  14294.791911 -21236.596331    123.758092  6  4  7 121       
PG17   -571.707352 -15611.186268  21538.759249     38.895395  6  7  8 108       
PG18 -17628.635009  19566.783865   1313.251492   -174.189980  3  7  4 136       
PG19  25336.088194   8191.902780  -1279.792175     30.675069  8 11  5 153       
PG20  20859.822359  -9327.105574  13385.349428    113.548258  5  6  6 121       
PG21  -7682.562292  18347.189986 -17113.635155     63.215360  5  4  3 123       
PG22  -7643.227149  21657.858970  13447.017586    211.257185  5 10  4 106       
PG23  25209.993668   -694.239145  -8792.623583    355.823502  8  7  8 114       
PG24 -14449.739369   5136.128093 -21526.092699     96.786881  5  7  7 108       
PG25  13222.262407  -7063.889155 -21570.793005   -177.259731 11  9  7 119       
PG26 -23870.789769 -10669.881998  -6594.847967    261.079426  7  7  6 102       
PG27   7787.790928 -15930.960612 -19058.583745    191.036335  9 11 11 124       
PG28   8941.180069 -21805.451988  12294.890076    -19.356382  3 10  7 140       
PG29 -20111.204519   6711.744960 -15859.336119    -42.946298  5  5  6 135       
PG30 -19033.999611  17781.263091   4573.137501     78.196788  5  8  6 121       
PG31   7179.879659  25469.002034   1644.798305    -21.178919  6  9    134       
PG32  14956.025713   6178.163898  21471.210718    289.931773  8  6  5 104       
EOF
